#cP2021  9  3  0  0  0.00000000      96 ORBIT IGb14 HLM  IGS
## 2173 432000.00000000   900.00000000 59460 0.0000000000000
+   31   G01G02G03G04G05G06G07G08G09G10G12G13G14G15G16G17G18
+        G19G20G21G22G23G24G25G26G27G28G29G30G31G32  0  0  0
+          0  0  0  0  0  0  0  0  0  0  0  0  0  0  0  0  0
+          0  0  0  0  0  0  0  0  0  0  0  0  0  0  0  0  0
+          0  0  0  0  0  0  0  0  0  0  0  0  0  0  0  0  0
++         2  2  1  3  2  1  2  2  2  1  2  2  2  2  2  2  2
++         2  2  2  1  2  2  2  2  2  2  2  1  2  2  0  0  0
++         0  0  0  0  0  0  0  0  0  0  0  0  0  0  0  0  0
++         0  0  0  0  0  0  0  0  0  0  0  0  0  0  0  0  0
++         0  0  0  0  0  0  0  0  0  0  0  0  0  0  0  0  0
%c G  cc GPS ccc cccc cccc cccc cccc ccccc ccccc ccccc ccccc
%c cc cc ccc ccc cccc cccc cccc cccc ccccc ccccc ccccc ccccc
%f  1.2500000  1.025000000  0.00000000000  0.000000000000000
%f  0.0000000  0.000000000  0.00000000000  0.000000000000000
%i    0    0    0    0      0      0      0      0         0
%i    0    0    0    0      0      0      0      0         0
/* FINAL ORBIT COMBINATION FROM WEIGHTED AVERAGE OF:        
/* cod emr esa gfz grg jpl mit ngs sio                      
/* REFERENCED TO IGS TIME (IGST) AND TO WEIGHTED MEAN POLE: 
/* PCV:IGS14_2163 OL/AL:FES2004  NONE     Y  ORB:CMB CLK:CMB
*  2021  9  3 21 45  0.00000000
PG01 -13133.846344  11445.794508  19667.385295    578.143797  5  6  4 100       
PG02  13452.935947  13535.170636 -17791.052131   -630.278015  2  5  3  88       
PG03 -23476.442021  12139.986468   1876.611268   -276.974269  5  5  2  93       
PG04 -18059.648945   4410.568509 -18990.181538   -204.276559  7  4  7  86       
PG05  22733.317458  -2955.226645 -13715.510368    -53.244382  3  5  2 101       
PG06   6572.736479  23705.288007  -9881.303600     67.717483  5  5  4  53       
PG07  -6534.176832  23702.124258  -9013.195343    238.307310  3  8  2  79       
PG08 -23878.175857  -4354.600578  11130.661582    -35.131395  4  5  3  78       
PG09  -7302.849582  13551.004799 -21711.760546   -360.311833  5  3  8  90       
PG10   1412.617189 -17003.986712  20396.138831   -195.918843  7  4  4  64       
PG12  24305.007931 -10256.729869   2131.497443    -92.265522  4  5  1  97       
PG13  22754.901760  12642.702977   5518.189582    180.479674  4  6  3  64       
PG14  -1850.967398  17105.589311  20218.213772      9.146904  5  6  5  73       
PG15  24249.130191   1602.460999  10725.897756   -123.677670  7  6     89       
PG16 -20469.888557  -3332.802897 -17098.149435   -384.627705  6  4  3  83       
PG17   6174.932758  18677.019580  18274.046638    499.379348  3  5  5  85       
PG18   5581.447724 -24823.743422  -7471.584320    326.262461  5  3  5  82       
PG19  14500.942931  19418.126922  10774.924952     48.258887  5  5  4  78       
PG20  15740.817508   6472.872845 -20360.229304    519.318014  3  4  4  96       
PG21 -15442.646222   2355.077972  22157.007793    140.829923  5  3  3  87       
PG22 -23301.133133   7986.670285   9842.119020   -522.014932  2  4  2  97       
PG23  13006.603625 -18872.134121  13337.416835     62.141944  5  5  2  89       
PG24  14831.167802  -6611.770988  20700.357079    226.109869  5  5  3  85       
PG25  19022.303883 -16970.257938  -7199.352627    202.313731  6  6  3 100       
PG26 -10859.363414 -11561.618656 -21380.446174    130.188229  7  6  5  95       
PG27 -23709.563080 -12270.263292   1688.327942   -187.846366  7  7  5  74       
PG28   4565.979076  14635.898701  22247.180010    507.820635  7  6  3  82       
PG29  10425.851497 -10650.686766 -22033.031296   -406.280963  5  6  2 107       
PG30   1078.395606  26323.638578   2182.701217   -469.192308  4  2  2  71       
PG31  -7848.154534 -22260.846531 -11788.134356   -137.846131  6  6  5  98       
PG32 -10538.193172 -18729.334887  15836.683729      2.591102  8  8  9 100       
*  2021  9  3 22  0  0.00000000
PG01 -13283.818214   9075.786566  20786.186517    578.133769  5  6  4  94       
PG02  13508.430072  15594.320488 -16033.713630   -630.280033  3  4  3  99       
PG03 -23270.080088  11734.677718   4724.649663   -276.986111  4  5  2 110       
PG04 -19797.246788   3254.554084 -17433.705243   -204.276697  8  5  7  89       
PG05  21463.583841  -1873.533362 -15802.588721    -53.245458  3  5  2  95       
PG06   6427.859456  24694.557830  -7202.269798     67.723692  5  5  4  72       
PG07  -6860.083608  22470.102520 -11526.127368    238.313809  3  8  3  93       
PG08 -24790.272945  -5032.340976   8587.320052    -35.133184  5  5  3  82       
PG09  -9490.994893  12421.314794 -21542.139699   -360.312549  5  3  8 100       
PG10   3370.839349 -18107.350041  19147.685686   -195.925847  7  4  4  79       
PG12  24028.774432  -9847.299923   4979.302227    -92.270555  4  5  2  95       
PG13  23021.420055  13102.401612   2706.531926    180.484425  5  6  4  72       
PG14  -3863.956775  18113.530879  19015.771106      9.139419  5  5  5  88       
PG15  25198.040550   2280.916807   8246.266184   -123.675091  6  6     90       
PG16 -18740.456618  -4320.567633 -18761.734008   -384.633261  6  4  3  81       
PG17   4342.552820  17663.938070  19783.023224    499.384762  3  5  5  89       
PG18   5815.078106 -23821.485150 -10105.337358    326.258872  5  4  5  87       
PG19  13247.153309  18769.271623  13191.336523     48.263091  5  6  4  74       
PG20  13993.624172   8086.336823 -21071.675510    519.317802  4  3  4 102       
PG21 -15725.572242    -14.635662  22128.744120    140.832030  5  3  3  94       
PG22 -22490.619131   6989.717469  12253.576886   -522.006383  2  4  2 104       
PG23  14283.453081 -19470.937748  10956.762772     62.137504  5  5  2  86       
PG24  15163.410507  -4172.635572  21122.432059    226.118392  5  5  3  86       
PG25  19706.493344 -17086.027019  -4435.117021    202.319468  5  5  3 102       
PG26  -8848.901328 -12956.057386 -21482.505448    130.192091  7  5  5  76       
PG27 -23665.556191 -12457.234310  -1174.360120   -187.851230  8  7  5  54       
PG28   2410.761401  15696.335847  21865.977867    507.814695  7  6  4 103       
PG29  12507.753122  -9307.333134 -21557.395150   -406.285934  4  6  3 101       
PG30    736.229827  26410.001100   -635.501662   -469.195879  4  2  2  81       
PG31  -7594.800501 -23472.445120  -9280.680633   -137.848079  6  6  6 115       
PG32  -8789.689173 -17992.842490  17650.461386      2.588307  7  7  9 102       
*  2021  9  3 22 15  0.00000000
PG01 -13572.515944   6612.328665  21536.005259    578.123784  5  7  4  88       
PG02  13633.357859  17426.571190 -13986.589995   -630.282060  4  4  3  62       
PG03 -22825.634976  11133.169830   7490.681814   -276.997857  4  5  3  95       
PG04 -21419.850626   2277.427801 -15577.860808   -204.276813  9  5  7  78       
PG05  20078.130320   -593.679343 -17622.536944    -53.246677  4  4  2  88       
PG06   6309.338211  25379.627818  -4398.630121     67.729935  5  4  4  67       
PG07  -7270.930036  20978.403485 -13831.675696    238.320703  4  7  4  87       
PG08 -25467.192114  -5542.068255   5898.703153    -35.133846  5  6  3  82       
PG09 -11697.469325  11421.249519 -21004.185284   -360.313260  5  4  8  87       
PG10   5139.747599 -19221.880561  17570.053775   -195.932844  7  4  4  72       
PG12  23502.045091  -9255.486468   7740.223164    -92.275553  3  5  2  93       
PG13  23041.379715  13375.542697   -151.379351    180.489268  5  6  4  34       
PG14  -5693.218575  19139.307971  17485.545951      9.131923  6  5  6  86       
PG15  25903.738594   2821.391636   5625.474962   -123.672442  6  6     94       
PG16 -16921.377008  -5488.213535 -20113.389132   -384.638961  7  5  2  83       
PG17   2325.751681  16686.031360  20963.365741    499.389968  3  5  5  81       
PG18   6122.854107 -22545.012962 -12564.417055    326.255256  5  3  5  85       
PG19  11730.897557  18057.277898  15378.929569     48.267782  4  6  5  55       
PG20  12285.567549   9822.320723 -21420.381068    519.317969  5  3  4  81       
PG21 -16130.917836  -2338.973087  21743.827750    140.833781  4  3  4  74       
PG22 -21533.452602   5786.039312  14453.895025   -521.998204  1  4  3  90       
PG23  15302.465052 -19967.268875   8386.629221     62.133052  5  5  2  93       
PG24  15613.804048  -1729.110240  21171.654542    226.126958  4  5  4  73       
PG25  20126.612534 -17049.985978  -1593.678536    202.325204  5  5  3  91       
PG26  -6914.191429 -14443.353250 -21216.652914    130.196025  7  5  5  85       
PG27 -23340.928264 -12512.352779  -4017.319354   -187.856106  8  7  5  56       
PG28    371.551690  16843.223439  21127.533417    507.808333  7  6  4  99       
PG29  14595.483483  -8118.511808 -20712.668613   -406.291236  3  6  3  97       
PG30    375.849312  26194.178399  -3442.595153   -469.199508  5  2  2  97       
PG31  -7380.956950 -24401.901934  -6609.832784   -137.849908  7  6  6 110       
PG32  -6834.021751 -17271.809840  19165.015285      2.585422  7  7  9  99       
EOF
